CTC1_L_00400016-03
1 10062U 26050NX  26075.70034722  .00000000  00000+0  00000-0 0  9996
2 10062  60.0000 180.0000 0000000   0.0000   0.0000 12.90384021    17
CTC1_L_00400016-04
1 10063U 24294SD  26075.70034722  .00000000  00000+0  00000-0 0  9995
2 10063  60.0000 180.0000 0000000   0.0000  90.0000 12.90384021    17
CTC1_L_00400017-01
1 10064U 26495JI  26075.70034722  .00000000  00000+0  00000-0 0  9991
2 10064  60.0000 192.0000 0000000   0.0000 192.0000 12.90384021    14
CTC1_L_00400017-02
1 10065U 26702RT  26075.70034722  .00000000  00000+0  00000-0 0  9993
2 10065  60.0000 192.0000 0000000   0.0000 282.0000 12.90384021    15
CTC1_L_00400017-03
1 10066U 23259ZV  26075.70034722  .00000000  00000+0  00000-0 0  9998
2 10066  60.0000 192.0000 0000000   0.0000  12.0000 12.90384021    17
CTC1_L_00400017-04
1 10067U 24557LE  26075.70034722  .00000000  00000+0  00000-0 0  9991
2 10067  60.0000 192.0000 0000000   0.0000 102.0000 12.90384021    18
CTC1_L_00400018-01
1 10068U 23389OV  26075.70034722  .00000000  00000+0  00000-0 0  9994
2 10068  60.0000 204.0000 0000000   0.0000 204.0000 12.90384021    16
CTC1_L_00400018-02
1 10069U 22214LL  26075.70034722  .00000000  00000+0  00000-0 0  9991
2 10069  60.0000 204.0000 0000000   0.0000 294.0000 12.90384021    16
CTC1_L_00400018-03
1 10070U 23410QA  26075.70034722  .00000000  00000+0  00000-0 0  9992
2 10070  60.0000 204.0000 0000000   0.0000  24.0000 12.90384021    19
CTC1_L_00400018-04
1 10071U 25069GQ  26075.70034722  .00000000  00000+0  00000-0 0  9995
2 10071  60.0000 204.0000 0000000   0.0000 114.0000 12.90384021    10
CTC1_L_00400019-01
1 10072U 22252X   26075.70034722  .00000000  00000+0  00000-0 0  9997
2 10072  60.0000 216.0000 0000000   0.0000 216.0000 12.90384021    17
CTC1_L_00400019-02
1 10073U 22236LI  26075.70034722  .00000000  00000+0  00000-0 0  9990
2 10073  60.0000 216.0000 0000000   0.0000 306.0000 12.90384021    18
CTC1_L_00400019-03
1 10074U 24710FN  26075.70034722  .00000000  00000+0  00000-0 0  9990
2 10074  60.0000 216.0000 0000000   0.0000  36.0000 12.90384021    19
CTC1_L_00400019-04
1 10075U 26371LK  26075.70034722  .00000000  00000+0  00000-0 0  9996
2 10075  60.0000 216.0000 0000000   0.0000 126.0000 12.90384021    10
CTC1_L_00400020-01
1 10076U 22348TI  26075.70034722  .00000000  00000+0  00000-0 0  9997
2 10076  60.0000 228.0000 0000000   0.0000 228.0000 12.90384021    17
CTC1_L_00400020-02
1 10077U 23355DC  26075.70034722  .00000000  00000+0  00000-0 0  9997
2 10077  60.0000 228.0000 0000000   0.0000 318.0000 12.90384021    18
CTC1_L_00400020-03
1 10078U 26245QX  26075.70034722  .00000000  00000+0  00000-0 0  9999
2 10078  60.0000 228.0000 0000000   0.0000  48.0000 12.90384021    19
CTC1_L_00400020-04
1 10079U 26221RQ  26075.70034722  .00000000  00000+0  00000-0 0  9994
2 10079  60.0000 228.0000 0000000   0.0000 138.0000 12.90384021    10
CTC1_L_00400021-01
1 10080U 24218TW  26075.70034722  .00000000  00000+0  00000-0 0  9990
2 10080  60.0000 240.0000 0000000   0.0000 240.0000 12.90384021    10
CTC1_L_00400021-02
1 10081U 26722PM  26075.70034722  .00000000  00000+0  00000-0 0  9993
2 10081  60.0000 240.0000 0000000   0.0000 330.0000 12.90384021    11
CTC1_L_00400021-03
1 10082U 26611R   26075.70034722  .00000000  00000+0  00000-0 0  9991
2 10082  60.0000 240.0000 0000000   0.0000  60.0000 12.90384021    12
CTC1_L_00400021-04
1 10083U 22790DH  26075.70034722  .00000000  00000+0  00000-0 0  9996
2 10083  60.0000 240.0000 0000000   0.0000 150.0000 12.90384021    13
CTC1_L_00400022-01
1 10084U 24887UT  26075.70034722  .00000000  00000+0  00000-0 0  9996
2 10084  60.0000 252.0000 0000000   0.0000 252.0000 12.90384021    10
CTC1_L_00400022-02
1 10085U 23575LV  26075.70034722  .00000000  00000+0  00000-0 0  9990
2 10085  60.0000 252.0000 0000000   0.0000 342.0000 12.90384021    11
CTC1_L_00400022-03
1 10086U 23473YZ  26075.70034722  .00000000  00000+0  00000-0 0  9998
2 10086  60.0000 252.0000 0000000   0.0000  72.0000 12.90384021    12
CTC1_L_00400022-04
1 10087U 23870OV  26075.70034722  .00000000  00000+0  00000-0 0  9990
2 10087  60.0000 252.0000 0000000   0.0000 162.0000 12.90384021    13
CTC1_L_00400023-01
1 10088U 24209ZQ  26075.70034722  .00000000  00000+0  00000-0 0  9998
2 10088  60.0000 264.0000 0000000   0.0000 264.0000 12.90384021    10
CTC1_L_00400023-02
1 10089U 26892JA  26075.70034722  .00000000  00000+0  00000-0 0  9999
2 10089  60.0000 264.0000 0000000   0.0000 354.0000 12.90384021    11
CTC1_L_00400023-03
1 10090U 25541ZR  26075.70034722  .00000000  00000+0  00000-0 0  9991
2 10090  60.0000 264.0000 0000000   0.0000  84.0000 12.90384021    13
CTC1_L_00400023-04
1 10091U 23836OB  26075.70034722  .00000000  00000+0  00000-0 0  9997
2 10091  60.0000 264.0000 0000000   0.0000 174.0000 12.90384021    14
CTC1_L_00400024-01
1 10092U 26656UZ  26075.70034722  .00000000  00000+0  00000-0 0  9991
2 10092  60.0000 276.0000 0000000   0.0000 276.0000 12.90384021    11
CTC1_L_00400024-02
1 10093U 24797GZ  26075.70034722  .00000000  00000+0  00000-0 0  9996
2 10093  60.0000 276.0000 0000000   0.0000   6.0000 12.90384021    13
CTC1_L_00400024-03
1 10094U 24277ZE  26075.70034722  .00000000  00000+0  00000-0 0  9990
2 10094  60.0000 276.0000 0000000   0.0000  96.0000 12.90384021    13
CTC1_L_00400024-04
1 10095U 26193KB  26075.70034722  .00000000  00000+0  00000-0 0  9990
2 10095  60.0000 276.0000 0000000   0.0000 186.0000 12.90384021    14
CTC1_L_00400025-01
1 10096U 26298ZO  26075.70034722  .00000000  00000+0  00000-0 0  9997
2 10096  60.0000 288.0000 0000000   0.0000 288.0000 12.90384021    11
CTC1_L_00400025-02
1 10097U 22771XR  26075.70034722  .00000000  00000+0  00000-0 0  9990
2 10097  60.0000 288.0000 0000000   0.0000  18.0000 12.90384021    13
CTC1_L_00400025-03
1 10098U 22180RI  26075.70034722  .00000000  00000+0  00000-0 0  9995
2 10098  60.0000 288.0000 0000000   0.0000 108.0000 12.90384021    14
CTC1_L_00400025-04
1 10099U 26947SM  26075.70034722  .00000000  00000+0  00000-0 0  9991
2 10099  60.0000 288.0000 0000000   0.0000 198.0000 12.90384021    14
CTC1_L_00400026-01
1 10100U 22381KE  26075.70034722  .00000000  00000+0  00000-0 0  9992
2 10100  60.0000 300.0000 0000000   0.0000 300.0000 12.90384021    17
CTC1_L_00400026-02
1 10101U 23054E   26075.70034722  .00000000  00000+0  00000-0 0  9991
2 10101  60.0000 300.0000 0000000   0.0000  30.0000 12.90384021    18
CTC1_L_00400026-03
1 10102U 26752NU  26075.70034722  .00000000  00000+0  00000-0 0  9990
2 10102  60.0000 300.0000 0000000   0.0000 120.0000 12.90384021    19
CTC1_L_00400026-04
1 10103U 26452CT  26075.70034722  .00000000  00000+0  00000-0 0  9998
2 10103  60.0000 300.0000 0000000   0.0000 210.0000 12.90384021    10
CTC1_L_00400027-01
1 10104U 26637KL  26075.70034722  .00000000  00000+0  00000-0 0  9994
2 10104  60.0000 312.0000 0000000   0.0000 312.0000 12.90384021    17
CTC1_L_00400027-02
1 10105U 23126UX  26075.70034722  .00000000  00000+0  00000-0 0  9995
2 10105  60.0000 312.0000 0000000   0.0000  42.0000 12.90384021    18
CTC1_L_00400027-03
1 10106U 23723CL  26075.70034722  .00000000  00000+0  00000-0 0  9999
2 10106  60.0000 312.0000 0000000   0.0000 132.0000 12.90384021    19
CTC1_L_00400027-04
1 10107U 26232AF  26075.70034722  .00000000  00000+0  00000-0 0  9998
2 10107  60.0000 312.0000 0000000   0.0000 222.0000 12.90384021    10
CTC1_L_00400028-01
1 10108U 24997AX  26075.70034722  .00000000  00000+0  00000-0 0  9995
2 10108  60.0000 324.0000 0000000   0.0000 324.0000 12.90384021    17
CTC1_L_00400028-02
1 10109U 23607L   26075.70034722  .00000000  00000+0  00000-0 0  9993
2 10109  60.0000 324.0000 0000000   0.0000  54.0000 12.90384021    18
CTC1_L_00400028-03
1 10110U 26953XP  26075.70034722  .00000000  00000+0  00000-0 0  9992
2 10110  60.0000 324.0000 0000000   0.0000 144.0000 12.90384021    10
CTC1_L_00400028-04
1 10111U 22097FO  26075.70034722  .00000000  00000+0  00000-0 0  9998
2 10111  60.0000 324.0000 0000000   0.0000 234.0000 12.90384021    11
CTC1_L_00400029-01
1 10112U 23559QK  26075.70034722  .00000000  00000+0  00000-0 0  9993
2 10112  60.0000 336.0000 0000000   0.0000 336.0000 12.90384021    18
CTC1_L_00400029-02
1 10113U 25801TU  26075.70034722  .00000000  00000+0  00000-0 0  9996
2 10113  60.0000 336.0000 0000000   0.0000  66.0000 12.90384021    19
CTC1_L_00400029-03
1 10114U 24275YJ  26075.70034722  .00000000  00000+0  00000-0 0  9991
2 10114  60.0000 336.0000 0000000   0.0000 156.0000 12.90384021    10
CTC1_L_00400029-04
1 10115U 26111CC  26075.70034722  .00000000  00000+0  00000-0 0  9993
2 10115  60.0000 336.0000 0000000   0.0000 246.0000 12.90384021    11
CTC1_L_00400030-01
1 10116U 25028MF  26075.70034722  .00000000  00000+0  00000-0 0  9990
2 10116  60.0000 348.0000 0000000   0.0000 348.0000 12.90384021    18
CTC1_L_00400030-02
1 10117U 22898OL  26075.70034722  .00000000  00000+0  00000-0 0  9993
2 10117  60.0000 348.0000 0000000   0.0000  78.0000 12.90384021    19
CTC1_L_00400030-03
1 10118U 23952MZ  26075.70034722  .00000000  00000+0  00000-0 0  9996
2 10118  60.0000 348.0000 0000000   0.0000 168.0000 12.90384021    10
CTC1_L_00400030-04
1 10119U 24398IW  26075.70034722  .00000000  00000+0  00000-0 0  9992
2 10119  60.0000 348.0000 0000000   0.0000 258.0000 12.90384021    11
